;
;136108 Haumea
;
#waituntil 1, 21:00
#count 5000
#binning 2
#filter r
#interval 120
D6108    0.25  0.15 K20CH 218.20478  239.04083  122.16594   28.21367  0.1964232  0.00348135  43.1159298  2 MPO600179  2875  27 1955-2021 0.36 M-v 3Ek Pan        000A (136108) Haumea             20210318
#quitat 01:45
#chain Obj_TOI-2257.txt
;